[{"OBJECT_NAME":"QIANFAN-24","OBJECT_ID":"2024-185F","EPOCH":"2026-03-09T23:10:13.381824","MEAN_MOTION":14.23940693,"ECCENTRICITY":0.00101265,"INCLINATION":88.9739,"RA_OF_ASC_NODE":66.9556,"ARG_OF_PERICENTER":26.7081,"MEAN_ANOMALY":333.4631,"EPHEMERIS_TYPE":0,"CLASSIFICATION_TYPE":"U","NORAD_CAT_ID":61557,"ELEMENT_SET_NO":999,"REV_AT_EPOCH":8243,"BSTAR":0.00040785949,"MEAN_MOTION_DOT":9.49e-6,"MEAN_MOTION_DDOT":0},{"OBJECT_NAME":"FENGYUN 1C DEB","OBJECT_ID":"1999-025CVW","EPOCH":"2026-03-07T20:01:26.812704","MEAN_MOTION":14.34224157,"ECCENTRICITY":0.00757059,"INCLINATION":98.9963,"RA_OF_ASC_NODE":26.195,"ARG_OF_PERICENTER":176.7749,"MEAN_ANOMALY":183.3938,"EPHEMERIS_TYPE":0,"CLASSIFICATION_TYPE":"U","NORAD_CAT_ID":32224,"ELEMENT_SET_NO":999,"REV_AT_EPOCH":96943,"BSTAR":0.00033955024,"MEAN_MOTION_DOT":9.36e-6,"MEAN_MOTION_DDOT":0}]
